KAITUO 1B               
1 40912U 15049P   18043.15181145  .00001073  00000-0  55242-4 0  9990
2 40912  97.4516  52.2697 0017383  86.1186 338.3477 15.18433825132699
TIANWANG 1C (TW-1C)     
1 40926U 15051B   18043.18613631  .00006553  00000-0  13139-3 0  9997
2 40926  97.2013  86.1790 0011189  25.4973  48.3056 15.46984823133975
TIANWANG 1B (TW-1B)     
1 40927U 15051C   18043.16781322  .00006137  00000-0  12821-3 0  9994
2 40927  97.2097  86.0595 0011511  35.9810   1.9290 15.45803143133895
TIANWANG 1A (TW-1A)     
1 40928U 15051D   18042.86549829  .00002535  00000-0  69924-4 0  9990
2 40928  97.2019  79.2865 0014037  58.5609  63.6999 15.37935599133519
LAPAN-A2 (IO-86)        
1 40931U 15052B   18042.08713618  .00000788  00000-0  20818-4 0  9995
2 40931   5.9983 329.2362 0013112  22.0300 338.0371 14.76564815128334
LQSAT                   
1 40958U 15057A   18043.17695923  .00000035  00000-0  13249-4 0  9993
2 40958  97.9530 118.9940 0018790  22.4723 337.7319 14.73015205126446
CHUBUSAT-2              
1 41338U 16012B   18042.27430627  .00000328  00000-0  18930-4 0  9993
2 41338  31.0045  33.5923 0013899 266.2765  93.6281 14.99916720108919
CHUBUSAT-3              
1 41339U 16012C   18043.16899047  .00000280  00000-0  15090-4 0  9999
2 41339  31.0106  26.6861 0013950 281.4195  78.4895 15.00108637109035
OUFTI-1                 
1 41458U 16025C   18042.86632204  .00000766  00000-0  44657-4 0  9991
2 41458  98.1536  98.9490 0170494 207.1585 152.0635 15.04232372 98590
E-ST@R-II               
1 41459U 16025D   18042.78563191  .00000302  00000-0  20660-4 0  9995
2 41459  98.1528  98.7504 0171200 208.0861 151.1051 15.03985728 98578
AAUSAT 4                
1 41460U 16025E   18043.20942124  .00001887  00000-0  10239-3 0  9991
2 41460  98.1492  99.5193 0163527 203.4340 155.9383 15.05274049 98688
NUSAT 1 (LO-87)         
1 41557U 16033B   18043.23054530  .00001268  00000-0  49120-4 0  9990
2 41557  97.4444 127.6559 0012577 235.4561 124.5492 15.27981447 95075
BEESAT-4                
1 41619U 16040W   18042.68734061  .00001214  00000-0  56655-4 0  9991
2 41619  97.4321 107.4941 0010464 315.9647  44.0754 15.21730682 79000
PRATHAM                 
1 41783U 16059A   18043.17504954  .00000058  00000-0  20684-4 0  9992
2 41783  98.1353 106.6499 0034723 127.0050 233.4338 14.62899635 73686
ALSAT 1N                
1 41789U 16059G   18043.10062455  .00000036  00000-0  16002-4 0  9991
2 41789  98.1353 107.5468 0029830 119.6816 240.7368 14.64125572 73710
NAYIF-1 (EO-88)         
1 42017U 17008BX  18043.16677898  .00001361  00000-0  59108-4 0  9996
2 42017  97.4647 108.8983 0008147  98.6228 261.5932 15.24022747 55029
LILACSAT-1              
1 42725U 98067ME  18043.00975881  .00016607  00000-0  17973-3 0  9994
2 42725  51.6370 273.7910 0005830 125.6115 234.5424 15.63706443 40894
MAX VALIER SAT          
1 42778U 17036P   18042.73613279  .00000832  00000-0  40547-4 0  9995
2 42778  97.4210 104.4398 0013812 143.8177 216.3995 15.21025197 35431
FOX-1B (AO-91)          
1 43017U 17073E   18043.03368173  .00000908  00000-0  77537-4 0  9990
2 43017  97.6996 339.4564 0259548 319.2836  38.9225 14.77895428 12627
FOX-1D (AO-92)          
1 43137U 18004AC  18042.90038063  .00000932  00000-0  43425-4 0  9991
2 43137  97.5512 105.1677 0009875 169.7285 190.4155 15.22417068  4659
